{
  "type": "FeatureCollection",
  "features": [
    {
      "type": "Feature",
      "properties": {
        "norad_id": 41890,
        "name": "CYGFM07",
        "group": "weather",
        "lat": -17.837005619407755,
        "lon": 146.3748461132772,
        "alt_km": 418.2315215140734,
        "timestamp": "2025-12-25T07:41:09.366376+00:00",
        "meta_object_name": "CYGFM07",
        "meta_object_id": "2016-078G",
        "meta_epoch": "2025-12-24T21:30:10.086912",
        "meta_mean_motion": 15.50512486,
        "meta_eccentricity": 0.00094373,
        "meta_inclination": 34.9478,
        "meta_ra_of_asc_node": 301.7222,
        "meta_arg_of_pericenter": 318.3124,
        "meta_mean_anomaly": 41.6878,
        "meta_ephemeris_type": 0,
        "meta_classification_type": "U",
        "meta_norad_cat_id": 41890,
        "meta_element_set_no": 999,
        "meta_rev_at_epoch": 50184,
        "meta_bstar": 0.00040570936,
        "meta_mean_motion_dot": 0.00023952,
        "meta_mean_motion_ddot": 0,
        "tle_line1": "1 41890U 16078G   25358.89595008  .00023952  00000+0  40571-3 0  9991",
        "tle_line2": "2 41890  34.9478 301.7222 0009437 318.3124  41.6878 15.50512486501840"
      },
      "geometry": {
        "type": "Point",
        "coordinates": [
          146.3748461132772,
          -17.837005619407755
        ]
      }
    },
    {
      "type": "Feature",
      "properties": {
        "norad_id": 41891,
        "name": "CYGFM03",
        "group": "weather",
        "lat": 22.74245858009144,
        "lon": -22.24019524192278,
        "alt_km": 411.3495613719024,
        "timestamp": "2025-12-25T07:41:09.366386+00:00",
        "meta_object_name": "CYGFM03",
        "meta_object_id": "2016-078H",
        "meta_epoch": "2025-12-24T22:13:53.859648",
        "meta_mean_motion": 15.50407421,
        "meta_eccentricity": 0.00092367,
        "meta_inclination": 34.9431,
        "meta_ra_of_asc_node": 303.4495,
        "meta_arg_of_pericenter": 305.5397,
        "meta_mean_anomaly": 54.4464,
        "meta_ephemeris_type": 0,
        "meta_classification_type": "U",
        "meta_norad_cat_id": 41891,
        "meta_element_set_no": 999,
        "meta_rev_at_epoch": 50182,
        "meta_bstar": 0.00039393722,
        "meta_mean_motion_dot": 0.00023164,
        "meta_mean_motion_ddot": 0,
        "tle_line1": "1 41891U 16078H   25358.92631782  .00023164  00000+0  39394-3 0  9992",
        "tle_line2": "2 41891  34.9431 303.4495 0009236 305.5397  54.4464 15.50407421501821"
      },
      "geometry": {
        "type": "Point",
        "coordinates": [
          -22.24019524192278,
          22.74245858009144
        ]
      }
    },
    {
      "type": "Feature",
      "properties": {
        "norad_id": 43010,
        "name": "FENGYUN 3D",
        "group": "weather",
        "lat": -9.009809209748598,
        "lon": 144.3807860117963,
        "alt_km": 829.5958903498286,
        "timestamp": "2025-12-25T07:41:09.366397+00:00",
        "meta_object_name": "FENGYUN 3D",
        "meta_object_id": "2017-072A",
        "meta_epoch": "2025-12-24T22:20:28.508928",
        "meta_mean_motion": 14.19686565,
        "meta_eccentricity": 0.00015298,
        "meta_inclination": 98.9913,
        "meta_ra_of_asc_node": 325.4241,
        "meta_arg_of_pericenter": 148.1468,
        "meta_mean_anomaly": 211.9801,
        "meta_ephemeris_type": 0,
        "meta_classification_type": "U",
        "meta_norad_cat_id": 43010,
        "meta_element_set_no": 999,
        "meta_rev_at_epoch": 42026,
        "meta_bstar": -7.2064953e-05,
        "meta_mean_motion_dot": -1.98e-06,
        "meta_mean_motion_ddot": 0,
        "tle_line1": "1 43010U 17072A   25358.93088552 -.00000198  00000+0 -72065-4 0  9991",
        "tle_line2": "2 43010  98.9913 325.4241 0001529 148.1468 211.9801 14.19686565420266"
      },
      "geometry": {
        "type": "Point",
        "coordinates": [
          144.3807860117963,
          -9.009809209748598
        ]
      }
    },
    {
      "type": "Feature",
      "properties": {
        "norad_id": 43013,
        "name": "NOAA 20 (JPSS-1)",
        "group": "weather",
        "lat": -25.89216260101985,
        "lon": -60.22670409282391,
        "alt_km": 832.6674691155031,
        "timestamp": "2025-12-25T07:41:09.366408+00:00",
        "meta_object_name": "NOAA 20 (JPSS-1)",
        "meta_object_id": "2017-073A",
        "meta_epoch": "2025-12-24T21:39:33.336288",
        "meta_mean_motion": 14.19528892,
        "meta_eccentricity": 0.00020722,
        "meta_inclination": 98.7615,
        "meta_ra_of_asc_node": 295.067,
        "meta_arg_of_pericenter": 69.8419,
        "meta_mean_anomaly": 290.2979,
        "meta_ephemeris_type": 0,
        "meta_classification_type": "U",
        "meta_norad_cat_id": 43013,
        "meta_element_set_no": 999,
        "meta_rev_at_epoch": 41974,
        "meta_bstar": 6.412575e-05,
        "meta_mean_motion_dot": 9.1e-07,
        "meta_mean_motion_ddot": 0,
        "tle_line1": "1 43013U 17073A   25358.90246917  .00000091  00000+0  64126-4 0  9992",
        "tle_line2": "2 43013  98.7615 295.0670 0002072  69.8419 290.2979 14.19528892419748"
      },
      "geometry": {
        "type": "Point",
        "coordinates": [
          -60.22670409282391,
          -25.89216260101985
        ]
      }
    },
    {
      "type": "Feature",
      "properties": {
        "norad_id": 43226,
        "name": "GOES 17",
        "group": "weather",
        "lat": 0.2695219882808717,
        "lon": 119.85247505840057,
        "alt_km": 35798.2834310825,
        "timestamp": "2025-12-25T07:41:09.366429+00:00",
        "meta_object_name": "GOES 17",
        "meta_object_id": "2018-022A",
        "meta_epoch": "2025-12-24T19:31:19.169184",
        "meta_mean_motion": 1.00272091,
        "meta_eccentricity": 0.00030879,
        "meta_inclination": 0.4869,
        "meta_ra_of_asc_node": 89.0551,
        "meta_arg_of_pericenter": 190.9463,
        "meta_mean_anomaly": 16.9111,
        "meta_ephemeris_type": 0,
        "meta_classification_type": "U",
        "meta_norad_cat_id": 43226,
        "meta_element_set_no": 999,
        "meta_rev_at_epoch": 2867,
        "meta_bstar": 0,
        "meta_mean_motion_dot": -1.62e-06,
        "meta_mean_motion_ddot": 0,
        "tle_line1": "1 43226U 18022A   25358.81341631 -.00000162  00000+0  00000+0 0  9998",
        "tle_line2": "2 43226   0.4869  89.0551 0003087 190.9463  16.9111  1.00272091 28678"
      },
      "geometry": {
        "type": "Point",
        "coordinates": [
          119.85247505840057,
          0.2695219882808717
        ]
      }
    },
    {
      "type": "Feature",
      "properties": {
        "norad_id": 43491,
        "name": "FENGYUN 2H",
        "group": "weather",
        "lat": -1.2129510955310008,
        "lon": -71.30216185407666,
        "alt_km": 35778.91178620539,
        "timestamp": "2025-12-25T07:41:09.366442+00:00",
        "meta_object_name": "FENGYUN 2H",
        "meta_object_id": "2018-050A",
        "meta_epoch": "2025-12-24T22:56:37.992192",
        "meta_mean_motion": 1.00270516,
        "meta_eccentricity": 0.00024102,
        "meta_inclination": 2.5804,
        "meta_ra_of_asc_node": 81.2014,
        "meta_arg_of_pericenter": 166.3835,
        "meta_mean_anomaly": 269.6344,
        "meta_ephemeris_type": 0,
        "meta_classification_type": "U",
        "meta_norad_cat_id": 43491,
        "meta_element_set_no": 999,
        "meta_rev_at_epoch": 2769,
        "meta_bstar": 0,
        "meta_mean_motion_dot": -1.09e-06,
        "meta_mean_motion_ddot": 0,
        "tle_line1": "1 43491U 18050A   25358.95599528 -.00000109  00000+0  00000+0 0  9999",
        "tle_line2": "2 43491   2.5804  81.2014 0002410 166.3835 269.6344  1.00270516 27697"
      },
      "geometry": {
        "type": "Point",
        "coordinates": [
          -71.30216185407666,
          -1.2129510955310008
        ]
      }
    },
    {
      "type": "Feature",
      "properties": {
        "norad_id": 43689,
        "name": "METOP-C",
        "group": "weather",
        "lat": -23.2976083058329,
        "lon": -126.88073923025011,
        "alt_km": 826.1846606033969,
        "timestamp": "2025-12-25T07:41:09.366457+00:00",
        "meta_object_name": "METOP-C",
        "meta_object_id": "2018-087A",
        "meta_epoch": "2025-12-24T20:35:44.661120",
        "meta_mean_motion": 14.21488904,
        "meta_eccentricity": 6.51e-05,
        "meta_inclination": 98.6912,
        "meta_ra_of_asc_node": 56.4411,
        "meta_arg_of_pericenter": 17.1279,
        "meta_mean_anomaly": 342.992,
        "meta_ephemeris_type": 0,
        "meta_classification_type": "U",
        "meta_norad_cat_id": 43689,
        "meta_element_set_no": 999,
        "meta_rev_at_epoch": 37006,
        "meta_bstar": 8.0271927e-05,
        "meta_mean_motion_dot": 1.32e-06,
        "meta_mean_motion_ddot": 0,
        "tle_line1": "1 43689U 18087A   25358.85815580  .00000132  00000+0  80272-4 0  9995",
        "tle_line2": "2 43689  98.6912  56.4411 0000651  17.1279 342.9920 14.21488904370063"
      },
      "geometry": {
        "type": "Point",
        "coordinates": [
          -126.88073923025011,
          -23.2976083058329
        ]
      }
    }
  ]
}